MACSAT 2 (M 2)          
1 20608U 90043B   08347.70399257  .00000173  00000-0  23204-4 0  5695
2 20608  89.7423  88.0021 0092813 204.6436 155.0340 14.71934768995920
TUBSAT A                
1 21577U 91050D   08348.04806803 -.00000049  00000-0 -19483-5 0  3572
2 21577  98.4423 291.7847 0005504 241.7419 118.3256 14.38518339913446
S80/T                   
1 22078U 92052C   08346.42477852 -.00000037  00000-0  10000-3 0  6393
2 22078  66.0882 353.6243 0010343 328.4794  31.5592 12.86722624767583
HEALTHSAT 1             
1 22827U 93061E   08347.45093249  .00000005  00000-0  18184-4 0  1418
2 22827  98.3996 302.9170 0009804  69.0868 291.1357 14.30142058793530
TUBSAT B                
1 22970U 94003B   08347.76737398  .00000051  00000-0  10000-3 0  9482
2 22970  82.5609 281.2062 0016270 358.7191   1.3902 13.16913874715442
CERISE                  
1 23606U 95033B   08347.21597412  .00000617  00000-0  79599-4 0  6455
2 23606  98.2267  95.6874 0006360   3.3689 356.7568 14.84776340724126
UPM/LBSAT               
1 23607U 95033C   08348.03872824 -.00000074  00000-0 -31293-5 0  9812
2 23607  98.2049  65.6061 0006851 124.4045 235.7878 14.74712401721614
FAISAT 2V               
1 24954U 97052B   08348.25256324  .00000040  00000-0  24636-4 0  3756
2 24954  82.9210  94.6348 0038367 294.6811  65.0356 13.79640923565038
MUBLCOM                 
1 25736U 99026B   08347.91085340  .00000091  00000-0  37218-4 0  6140
2 25736  97.7516 289.2374 0004679 274.0889  85.9756 14.44500338503908
RUBIN-3 & SL-8 R/B      
1 27561U 02054C   08347.46929466  .00000590  00000-0  14904-3 0  5485
2 27561  97.9482 186.3978 0048741 101.1133 259.5544 14.53638198320386
APRIZESAT 2 (LATINSAT D)
1 28366U 04025A   08347.69755230 -.00000019  00000-0  73018-5 0  2623
2 28366  98.0810 350.0368 0109665   8.9558 351.3531 14.35558459233479
SAUDICOMSAT 1           
1 28369U 04025D   08347.34502214  .00000023  00000-0  16760-4 0  2770
2 28369  98.0461  28.0794 0033494 268.8174  90.9183 14.50615316235863
SAUDICOMSAT 2           
1 28370U 04025E   08347.92503739  .00000007  00000-0  13874-4 0  2831
2 28370  98.0447  15.2955 0058132 296.4188  63.1024 14.45717145235159
APRIZESAT 1 (LATINSAT C)
1 28372U 04025G   08346.84994727 -.00000105  00000-0 -16492-4 0  2777
2 28372  98.0421  20.5861 0046244 284.9430  74.6603 14.48147333235385
NANOSAT-1               
1 28493U 04049B   08346.89958331  .00000027  00000-0  13002-4 0  2251
2 28493  98.2369 299.9259 0005578 120.5616 239.6145 14.70270582213648
SAUDICOMSAT 7           
1 31119U 07012C   08347.67781434  .00000385  00000-0  88724-4 0  5093
2 31119  98.0229  50.4624 0063091 121.3762 239.3615 14.59414593 88290
SAUDICOMSAT 6           
1 31121U 07012E   08347.73676681  .00000365  00000-0  89075-4 0  5111
2 31121  98.0211  47.5689 0080067 129.9759 230.8475 14.56291566 88126
SAUDICOMSAT 5           
1 31124U 07012H   08347.71030362  .00000399  00000-0  89121-4 0  5122
2 31124  98.0258  52.0920 0054687 117.2672 243.4093 14.60993930 88396
SAUDICOMSAT 3           
1 31125U 07012J   08347.88888920  .00000410  00000-0  88749-4 0  5198
2 31125  98.0280  53.7612 0046401 112.8542 247.7539 14.62539895 88514
SAUDICOMSAT 4           
1 31127U 07012L   08347.67505502  .00000380  00000-0  89803-4 0  5119
2 31127  98.0222  49.0774 0071410 125.7900 234.9942 14.57933167 88204
